CCSDS_OMM_VERS = 2.0
CREATION_DATE  = 
ORIGINATOR     = 

OBJECT_NAME    = UNKNOWN
OBJECT_ID      = 
CENTER_NAME    = EARTH
REF_FRAME      = TEME
TIME_SYSTEM    = UTC
MEAN_ELEMENT_THEORY = SGP/SGP4

EPOCH          = 2026-03-20T11:55:59.236032
MEAN_MOTION    = 12.77770996
ECCENTRICITY   = .0269934
INCLINATION    = 102.4036
RA_OF_ASC_NODE = 77.2889
ARG_OF_PERICENTER = 0.2092
MEAN_ANOMALY   = 150.0750

EPHEMERIS_TYPE = 0
CLASSIFICATION_TYPE = U
NORAD_CAT_ID   = 85061
ELEMENT_SET_NO = 999
REV_AT_EPOCH   = 56826
BSTAR          = .13447E-1
MEAN_MOTION_DOT = .3403E-4
MEAN_MOTION_DDOT = 0

CCSDS_OMM_VERS = 2.0
CREATION_DATE  = 
ORIGINATOR     = 

OBJECT_NAME    = UNKNOWN
OBJECT_ID      = 
CENTER_NAME    = EARTH
REF_FRAME      = TEME
TIME_SYSTEM    = UTC
MEAN_ELEMENT_THEORY = SGP/SGP4

EPOCH          = 2026-03-19T05:43:14.329056
MEAN_MOTION    = 14.40803856
ECCENTRICITY   = .0013842
INCLINATION    = 74.0459
RA_OF_ASC_NODE = 44.3691
ARG_OF_PERICENTER = 249.9231
MEAN_ANOMALY   = 172.4572

EPHEMERIS_TYPE = 0
CLASSIFICATION_TYPE = U
NORAD_CAT_ID   = 85100
ELEMENT_SET_NO = 999
REV_AT_EPOCH   = 64724
BSTAR          = .11304E-3
MEAN_MOTION_DOT = .336E-5
MEAN_MOTION_DDOT = 0

CCSDS_OMM_VERS = 2.0
CREATION_DATE  = 
ORIGINATOR     = 

OBJECT_NAME    = UNKNOWN
OBJECT_ID      = 
CENTER_NAME    = EARTH
REF_FRAME      = TEME
TIME_SYSTEM    = UTC
MEAN_ELEMENT_THEORY = SGP/SGP4

EPOCH          = 2026-03-18T18:24:16.901856
MEAN_MOTION    = 13.73044857
ECCENTRICITY   = .0010938
INCLINATION    = 100.0527
RA_OF_ASC_NODE = 188.3481
ARG_OF_PERICENTER = 128.1201
MEAN_ANOMALY   = 26.6950

EPHEMERIS_TYPE = 0
CLASSIFICATION_TYPE = U
NORAD_CAT_ID   = 85106
ELEMENT_SET_NO = 999
REV_AT_EPOCH   = 61624
BSTAR          = .69384E-3
MEAN_MOTION_DOT = .592E-5
MEAN_MOTION_DDOT = 0

CCSDS_OMM_VERS = 2.0
CREATION_DATE  = 
ORIGINATOR     = 

OBJECT_NAME    = UNKNOWN
OBJECT_ID      = 
CENTER_NAME    = EARTH
REF_FRAME      = TEME
TIME_SYSTEM    = UTC
MEAN_ELEMENT_THEORY = SGP/SGP4

EPOCH          = 2026-03-20T09:23:24.805248
MEAN_MOTION    = 14.83575250
ECCENTRICITY   = .0006652
INCLINATION    = 98.3988
RA_OF_ASC_NODE = 313.0930
ARG_OF_PERICENTER = 180.7934
MEAN_ANOMALY   = 179.3269

EPHEMERIS_TYPE = 0
CLASSIFICATION_TYPE = U
NORAD_CAT_ID   = 85151
ELEMENT_SET_NO = 999
REV_AT_EPOCH   = 49398
BSTAR          = .15238E-2
MEAN_MOTION_DOT = .12521E-3
MEAN_MOTION_DDOT = 0

CCSDS_OMM_VERS = 2.0
CREATION_DATE  = 
ORIGINATOR     = 

OBJECT_NAME    = UNKNOWN
OBJECT_ID      = 
CENTER_NAME    = EARTH
REF_FRAME      = TEME
TIME_SYSTEM    = UTC
MEAN_ELEMENT_THEORY = SGP/SGP4

EPOCH          = 2026-03-19T21:31:41.498112
MEAN_MOTION    = 13.71677719
ECCENTRICITY   = .0215907
INCLINATION    = 99.8628
RA_OF_ASC_NODE = 227.5699
ARG_OF_PERICENTER = 66.1094
MEAN_ANOMALY   = 83.2634

EPHEMERIS_TYPE = 0
CLASSIFICATION_TYPE = U
NORAD_CAT_ID   = 85210
ELEMENT_SET_NO = 999
REV_AT_EPOCH   = 61547
BSTAR          = .23129E-3
MEAN_MOTION_DOT = .201E-5
MEAN_MOTION_DDOT = 0

CCSDS_OMM_VERS = 2.0
CREATION_DATE  = 
ORIGINATOR     = 

OBJECT_NAME    = UNKNOWN
OBJECT_ID      = 
CENTER_NAME    = EARTH
REF_FRAME      = TEME
TIME_SYSTEM    = UTC
MEAN_ELEMENT_THEORY = SGP/SGP4

EPOCH          = 2026-03-19T16:31:07.942368
MEAN_MOTION    = 14.37711154
ECCENTRICITY   = .0206978
INCLINATION    = 98.0224
RA_OF_ASC_NODE = 171.7502
ARG_OF_PERICENTER = 194.9093
MEAN_ANOMALY   = 164.5935

EPHEMERIS_TYPE = 0
CLASSIFICATION_TYPE = U
NORAD_CAT_ID   = 85217
ELEMENT_SET_NO = 999
REV_AT_EPOCH   = 64178
BSTAR          = .67984E-3
MEAN_MOTION_DOT = .2573E-4
MEAN_MOTION_DDOT = 0

CCSDS_OMM_VERS = 2.0
CREATION_DATE  = 
ORIGINATOR     = 

OBJECT_NAME    = UNKNOWN
OBJECT_ID      = 
CENTER_NAME    = EARTH
REF_FRAME      = TEME
TIME_SYSTEM    = UTC
MEAN_ELEMENT_THEORY = SGP/SGP4

EPOCH          = 2026-03-19T16:14:46.487616
MEAN_MOTION    = 14.02354038
ECCENTRICITY   = .0516189
INCLINATION    = 65.5339
RA_OF_ASC_NODE = 320.2511
ARG_OF_PERICENTER = 343.5480
MEAN_ANOMALY   = 14.9361

EPHEMERIS_TYPE = 0
CLASSIFICATION_TYPE = U
NORAD_CAT_ID   = 85237
ELEMENT_SET_NO = 999
REV_AT_EPOCH   = 62193
BSTAR          = .64182E-3
MEAN_MOTION_DOT = .3148E-4
MEAN_MOTION_DDOT = 0

CCSDS_OMM_VERS = 2.0
CREATION_DATE  = 
ORIGINATOR     = 

OBJECT_NAME    = UNKNOWN
OBJECT_ID      = 
CENTER_NAME    = EARTH
REF_FRAME      = TEME
TIME_SYSTEM    = UTC
MEAN_ELEMENT_THEORY = SGP/SGP4

EPOCH          = 2026-03-19T13:40:14.647872
MEAN_MOTION    = 13.88362505
ECCENTRICITY   = .0062516
INCLINATION    = 99.0690
RA_OF_ASC_NODE = 10.0174
ARG_OF_PERICENTER = 299.4245
MEAN_ANOMALY   = 239.9791

EPHEMERIS_TYPE = 0
CLASSIFICATION_TYPE = U
NORAD_CAT_ID   = 85238
ELEMENT_SET_NO = 999
REV_AT_EPOCH   = 62427
BSTAR          = .59824E-4
MEAN_MOTION_DOT = .29E-6
MEAN_MOTION_DDOT = 0

CCSDS_OMM_VERS = 2.0
CREATION_DATE  = 
ORIGINATOR     = 

OBJECT_NAME    = UNKNOWN
OBJECT_ID      = 
CENTER_NAME    = EARTH
REF_FRAME      = TEME
TIME_SYSTEM    = UTC
MEAN_ELEMENT_THEORY = SGP/SGP4

EPOCH          = 2026-03-20T10:50:56.853888
MEAN_MOTION    = 14.21834685
ECCENTRICITY   = .0222829
INCLINATION    = 97.9911
RA_OF_ASC_NODE = 78.8134
ARG_OF_PERICENTER = 16.0938
MEAN_ANOMALY   = 344.7173

EPHEMERIS_TYPE = 0
CLASSIFICATION_TYPE = U
NORAD_CAT_ID   = 85246
ELEMENT_SET_NO = 999
REV_AT_EPOCH   = 63695
BSTAR          = .63136E-3
MEAN_MOTION_DOT = .1749E-4
MEAN_MOTION_DDOT = 0

CCSDS_OMM_VERS = 2.0
CREATION_DATE  = 
ORIGINATOR     = 

OBJECT_NAME    = UNKNOWN
OBJECT_ID      = 
CENTER_NAME    = EARTH
REF_FRAME      = TEME
TIME_SYSTEM    = UTC
MEAN_ELEMENT_THEORY = SGP/SGP4

EPOCH          = 2026-03-20T08:58:18.180192
MEAN_MOTION    = 14.00483026
ECCENTRICITY   = .0050079
INCLINATION    = 100.4228
RA_OF_ASC_NODE = 133.9929
ARG_OF_PERICENTER = 342.0092
MEAN_ANOMALY   = 79.2959

EPHEMERIS_TYPE = 0
CLASSIFICATION_TYPE = U
NORAD_CAT_ID   = 85373
ELEMENT_SET_NO = 999
REV_AT_EPOCH   = 62579
BSTAR          = .14412E-2
MEAN_MOTION_DOT = .2107E-4
MEAN_MOTION_DDOT = 0

CCSDS_OMM_VERS = 2.0
CREATION_DATE  = 
ORIGINATOR     = 

OBJECT_NAME    = UNKNOWN
OBJECT_ID      = 
CENTER_NAME    = EARTH
REF_FRAME      = TEME
TIME_SYSTEM    = UTC
MEAN_ELEMENT_THEORY = SGP/SGP4

EPOCH          = 2026-03-21T02:12:52.000128
MEAN_MOTION    = 1.04170165
ECCENTRICITY   = .02375
INCLINATION    = 0.2500
RA_OF_ASC_NODE = 63.9100
ARG_OF_PERICENTER = 184.1600
MEAN_ANOMALY   = 179.3500

EPHEMERIS_TYPE = 0
CLASSIFICATION_TYPE = U
NORAD_CAT_ID   = 85423
ELEMENT_SET_NO = 999
REV_AT_EPOCH   = 1
BSTAR          = 0
MEAN_MOTION_DOT = -.119E-5
MEAN_MOTION_DDOT = 0

