UNKNOWN                 
1 85061U          26079.49721338  .00003403  00000+0  13447-1 0  9990
2 85061 102.4036  77.2889 0269934   0.2092 150.0750 12.77770996568265
UNKNOWN                 
1 85100U          26078.23836029  .00000336  00000+0  11304-3 0  9993
2 85100  74.0459  44.3691 0013842 249.9231 172.4572 14.40803856647240
UNKNOWN                 
1 85106U          26077.76686229  .00000592  00000+0  69384-3 0  9996
2 85106 100.0527 188.3481 0010938 128.1201  26.6950 13.73044857616245
UNKNOWN                 
1 85151U          26079.39125932  .00012521  00000+0  15238-2 0  9999
2 85151  98.3988 313.0930 0006652 180.7934 179.3269 14.83575250493987
UNKNOWN                 
1 85210U          26078.89700808  .00000201  00000+0  23129-3 0  9991
2 85210  99.8628 227.5699 0215907  66.1094  83.2634 13.71677719615478
UNKNOWN                 
1 85217U          26078.68828637  .00002573  00000+0  67984-3 0  9997
2 85217  98.0224 171.7502 0206978 194.9093 164.5935 14.37711154641783
UNKNOWN                 
1 85237U          26078.67692694  .00003148  00000+0  64182-3 0  9996
2 85237  65.5339 320.2511 0516189 343.5480  14.9361 14.02354038621934
UNKNOWN                 
1 85238U          26078.56961398  .00000029  00000+0  59824-4 0  9998
2 85238  99.0690  10.0174 0062516 299.4245 239.9791 13.88362505624271
UNKNOWN                 
1 85246U          26079.45204692  .00001749  00000+0  63136-3 0  9993
2 85246  97.9911  78.8134 0222829  16.0938 344.7173 14.21834685636956
UNKNOWN                 
1 85373U          26079.37382153  .00002107  00000+0  14412-2 0  9995
2 85373 100.4228 133.9929 0050079 342.0092  79.2959 14.00483026625790
UNKNOWN                 
1 85423U          26080.09226852 -.00000119  00000+0  00000+0 0  9992
2 85423   0.2500  63.9100 0237500 184.1600 179.3500  1.04170165    18
